ONEWEB-0205             
1 48226U 21031S   25158.94272211  .00000280  00000+0  72056-3 0  9990
2 48226  87.9039   4.1502 0001985  83.4509 276.6846 13.14504636199106
ONEWEB-0206             
1 48227U 21031T   25158.99188522 -.00000027  00000+0 -10842-3 0  9993
2 48227  87.9035   4.1209 0001832  84.4478 275.6860 13.14504471199072
ONEWEB-0182             
1 48228U 21031U   25159.06324495 -.00000121  00000+0 -36106-3 0  9990
2 48228  87.9041   4.1491 0001652  83.6224 276.5094 13.14504978199298
ONEWEB-0186             
1 48229U 21031V   25159.07433401 -.00000112  00000+0 -33589-3 0  9992
2 48229  87.9039   4.1082 0001871  86.5140 273.6204 13.14504107199244
ONEWEB-0181             
1 48230U 21031W   25159.05213115 -.00000099  00000+0 -30034-3 0  9996
2 48230  87.9040   4.1843 0001950  89.2539 270.8815 13.14501399199093
ONEWEB-0188             
1 48231U 21031X   25159.09019805  .00000252  00000+0  64549-3 0  9998
2 48231  87.9040   4.1684 0001810  85.2193 274.9144 13.14505221198990
ONEWEB-0220             
1 48232U 21031Y   25159.12987809 -.00000131  00000+0 -38766-3 0  9991
2 48232  87.9033   4.1041 0002030  81.0180 279.1179 13.14504408199267
ONEWEB-0165             
1 48233U 21031Z   25159.08226141  .00000108  00000+0  25806-3 0  9995
2 48233  87.9038   4.1538 0001981  86.1481 273.9875 13.14505184199210
